{
"type": "FeatureCollection",
"name": "nowe_poi",
"crs": { "type": "name", "properties": { "name": "urn:ogc:def:crs:OGC:1.3:CRS84" } },
"features": [
{"type":"Feature","properties":{"fid":1},"geometry":{"type":"Point","coordinates":[18.093162265358028,53.116101007719806]}},
{"type":"Feature","properties":{"fid":2},"geometry":{"type":"Point","coordinates":[18.065647906319725,53.08330678460463]}},
{"type":"Feature","properties":{"fid":3},"geometry":{"type":"Point","coordinates":[18.06996563015591,53.151117090102758]}}
]
}
